{
  "norad_id": 45581,
  "name": "STARLINK-1335",
  "history": [
    {
      "epoch": "2026-03-28T21:59:08.549952Z",
      "apogee_km": 478.67319856205086,
      "perigee_km": 476.7380684203208,
      "latitude_deg": 9.40459446772433e-06,
      "longitude_deg": -170.262274681762,
      "height_km": 478.6476548373904,
      "semi_major_axis_km": 6855.842633491186,
      "eccentricity": 0.00014113,
      "inclination_deg": 53.1573,
      "raan_deg": 345.853,
      "arg_perigee_deg": 92.6513,
      "mean_anomaly_deg": 267.4649,
      "mean_motion_rev_day": 15.29366248
    },
    {
      "epoch": "2026-03-28T23:33:14.820192Z",
      "apogee_km": 478.63678918871847,
      "perigee_km": 476.77748425883965,
      "latitude_deg": -3.670370231521922e-05,
      "longitude_deg": 165.84545269232822,
      "height_km": 478.55330479353506,
      "semi_major_axis_km": 6855.844136723779,
      "eccentricity": 0.0001356,
      "inclination_deg": 53.1571,
      "raan_deg": 345.5513,
      "arg_perigee_deg": 86.8453,
      "mean_anomaly_deg": 273.2702,
      "mean_motion_rev_day": 15.29365745
    },
    {
      "epoch": "2026-03-29T23:04:50.302848Z",
      "apogee_km": 478.6407732531652,
      "perigee_km": 476.8731866672515,
      "latitude_deg": 4.20060036181094e-05,
      "longitude_deg": 167.43366745741184,
      "height_km": 478.57999623119184,
      "semi_major_axis_km": 6855.8939799602085,
      "eccentricity": 0.00012891,
      "inclination_deg": 53.1563,
      "raan_deg": 341.0035,
      "arg_perigee_deg": 85.1772,
      "mean_anomaly_deg": 274.9376,
      "mean_motion_rev_day": 15.29349067
    },
    {
      "epoch": "2026-03-30T22:36:23.335200Z",
      "apogee_km": 478.6629269513851,
      "perigee_km": 476.7506949956278,
      "latitude_deg": -4.851764010518639e-05,
      "longitude_deg": 169.0306943006541,
      "height_km": 478.6829718440544,
      "semi_major_axis_km": 6855.843810973506,
      "eccentricity": 0.00013946,
      "inclination_deg": 53.157,
      "raan_deg": 336.4544,
      "arg_perigee_deg": 94.7331,
      "mean_anomaly_deg": 265.3828,
      "mean_motion_rev_day": 15.29365854
    },
    {
      "epoch": "2026-03-31T09:35:08.137536Z",
      "apogee_km": 478.83599055137256,
      "perigee_km": 476.67377936869434,
      "latitude_deg": 1.807523253563252e-05,
      "longitude_deg": 1.7695720497306993,
      "height_km": 478.8579054140885,
      "semi_major_axis_km": 6855.891884960033,
      "eccentricity": 0.00015769,
      "inclination_deg": 53.1583,
      "raan_deg": 334.3308,
      "arg_perigee_deg": 100.9767,
      "mean_anomaly_deg": 259.1411,
      "mean_motion_rev_day": 15.29349768
    }
  ]
}